start=new Date('2022-01-07T00:00:00.000Z').valueOf();
sats=[{"TLE_LINE2":"2 50176  53.2202 269.8454 0000942 147.0367 213.0713 15.74282633  6404","TLE_LINE1":"1 50176U 21125W   22006.87087215 -.00417366  00000-0 -29769-2 0  9992","LAUNCH_DATE":"2021-12-18","MEAN_MOTION_DOT":"-0.00417366","GP_ID":"193355956","OBJECT_NAME":"STARLINK-3293","PERIAPSIS":"346.042","MEAN_ANOMALY":"213.0713","MEAN_MOTION_DDOT":"0.0000000000000","APOAPSIS":"347.309","FILE":"3265870","OBJECT_ID":"2021-125W","EPHEMERIS_TYPE":"0","CENTER_NAME":"EARTH","SITE":"AFWTR","ELEMENT_SET_NO":"999","DECAY_DATE":null,"INCLINATION":"53.2202","MEAN_ELEMENT_THEORY":"SGP4","SEMIMAJOR_AXIS":"6724.810","REF_FRAME":"TEME","COUNTRY_CODE":"US","MEAN_MOTION":"15.74282633","ECCENTRICITY":"0.00009420","OBJECT_TYPE":"PAYLOAD","CLASSIFICATION_TYPE":"U","TIME_SYSTEM":"UTC","PERIOD":"91.470","RCS_SIZE":"LARGE","REV_AT_EPOCH":"640","ARG_OF_PERICENTER":"147.0367","NORAD_CAT_ID":"50176","EPOCH":"2022-01-06T20:54:03.353760","BSTAR":"-0.00297690000000","RA_OF_ASC_NODE":"269.8454"},{"BSTAR":"-0.00072405000000","RA_OF_ASC_NODE":"269.5304","EPOCH":"2022-01-06T22:25:24.341664","NORAD_CAT_ID":"50177","ARG_OF_PERICENTER":"217.9687","REV_AT_EPOCH":"637","RCS_SIZE":"LARGE","PERIOD":"91.412","TIME_SYSTEM":"UTC","CLASSIFICATION_TYPE":"U","OBJECT_TYPE":"PAYLOAD","ECCENTRICITY":"0.00049100","COUNTRY_CODE":"US","MEAN_MOTION":"15.75281514","REF_FRAME":"TEME","SEMIMAJOR_AXIS":"6721.967","MEAN_ELEMENT_THEORY":"SGP4","INCLINATION":"53.2204","DECAY_DATE":null,"ELEMENT_SET_NO":"999","SITE":"AFWTR","CENTER_NAME":"EARTH","EPHEMERIS_TYPE":"0","OBJECT_ID":"2021-125X","APOAPSIS":"347.133","FILE":"3265870","MEAN_MOTION_DDOT":"0.0000000000000","PERIAPSIS":"340.532","MEAN_ANOMALY":"142.0988","OBJECT_NAME":"STARLINK-3282","GP_ID":"193356206","MEAN_MOTION_DOT":"-0.00110492","LAUNCH_DATE":"2021-12-18","TLE_LINE1":"1 50177U 21125X   22006.93430951 -.00110492  00000-0 -72405-3 0  9995","TLE_LINE2":"2 50177  53.2204 269.5304 0004910 217.9687 142.0988 15.75281514  6378"},{"LAUNCH_DATE":"2021-12-18","TLE_LINE2":"2 50178  53.2190 269.5087 0023882 267.9539  91.8749 15.79940169  6414","TLE_LINE1":"1 50178U 21125Y   22006.93124314  .02044240  00000-0  92358-2 0  9994","MEAN_MOTION_DDOT":"0.0000000000000","FILE":"3265870","APOAPSIS":"346.634","GP_ID":"193356457","MEAN_MOTION_DOT":"0.02044240","OBJECT_NAME":"STARLINK-3284","MEAN_ANOMALY":"91.8749","PERIAPSIS":"314.590","EPHEMERIS_TYPE":"0","SITE":"AFWTR","ELEMENT_SET_NO":"999","CENTER_NAME":"EARTH","DECAY_DATE":null,"MEAN_ELEMENT_THEORY":"SGP4","INCLINATION":"53.2190","OBJECT_ID":"2021-125Y","RCS_SIZE":"LARGE","REV_AT_EPOCH":"641","NORAD_CAT_ID":"50178","ARG_OF_PERICENTER":"267.9539","RA_OF_ASC_NODE":"269.5087","BSTAR":"0.00923580000000","EPOCH":"2022-01-06T22:20:59.407296","MEAN_MOTION":"15.79940169","COUNTRY_CODE":"US","SEMIMAJOR_AXIS":"6708.747","REF_FRAME":"TEME","OBJECT_TYPE":"PAYLOAD","ECCENTRICITY":"0.00238820","CLASSIFICATION_TYPE":"U","PERIOD":"91.143","TIME_SYSTEM":"UTC"},{"OBJECT_ID":"2021-125Z","CENTER_NAME":"EARTH","SITE":"AFWTR","ELEMENT_SET_NO":"999","EPHEMERIS_TYPE":"0","MEAN_ELEMENT_THEORY":"SGP4","INCLINATION":"53.2204","DECAY_DATE":null,"OBJECT_TYPE":"PAYLOAD","ECCENTRICITY":"0.00013250","COUNTRY_CODE":"US","MEAN_MOTION":"15.74233222","REF_FRAME":"TEME","SEMIMAJOR_AXIS":"6724.951","PERIOD":"91.473","TIME_SYSTEM":"UTC","CLASSIFICATION_TYPE":"U","REV_AT_EPOCH":"636","RCS_SIZE":"LARGE","BSTAR":"-0.00256210000000","RA_OF_ASC_NODE":"269.8456","EPOCH":"2022-01-06T20:54:15.858432","NORAD_CAT_ID":"50179","ARG_OF_PERICENTER":"162.0935","TLE_LINE2":"2 50179  53.2204 269.8456 0001325 162.0935 198.0133 15.74233222  6368","TLE_LINE1":"1 50179U 21125Z   22006.87101688 -.00360928  00000-0 -25621-2 0  9990","LAUNCH_DATE":"2021-12-18","GP_ID":"193357208","MEAN_MOTION_DOT":"-0.00360928","PERIAPSIS":"345.925","MEAN_ANOMALY":"198.0133","OBJECT_NAME":"STARLINK-3283","APOAPSIS":"347.707","FILE":"3265870","MEAN_MOTION_DDOT":"0.0000000000000"},{"OBJECT_ID":"2021-125AA","CENTER_NAME":"EARTH","SITE":"AFWTR","ELEMENT_SET_NO":"999","EPHEMERIS_TYPE":"0","MEAN_ELEMENT_THEORY":"SGP4","INCLINATION":"53.2195","DECAY_DATE":null,"OBJECT_TYPE":"PAYLOAD","ECCENTRICITY":"0.00009570","MEAN_MOTION":"15.74158724","COUNTRY_CODE":"US","SEMIMAJOR_AXIS":"6725.163","REF_FRAME":"TEME","PERIOD":"91.477","TIME_SYSTEM":"UTC","CLASSIFICATION_TYPE":"U","REV_AT_EPOCH":"641","RCS_SIZE":"MEDIUM","RA_OF_ASC_NODE":"269.5268","BSTAR":"-0.00278920000000","EPOCH":"2022-01-06T22:24:44.178624","NORAD_CAT_ID":"50180","ARG_OF_PERICENTER":"60.6884","TLE_LINE2":"2 50180  53.2195 269.5268 0000957  60.6884 299.4232 15.74158724  6418","TLE_LINE1":"1 50180U 21125AA  22006.93384466 -.00390231  00000-0 -27892-2 0  9998","LAUNCH_DATE":"2021-12-18","GP_ID":"193355456","MEAN_MOTION_DOT":"-0.00390231","PERIAPSIS":"346.385","MEAN_ANOMALY":"299.4232","OBJECT_NAME":"STARLINK-3265","APOAPSIS":"347.672","FILE":"3265870","MEAN_MOTION_DDOT":"0.0000000000000"},{"CLASSIFICATION_TYPE":"U","TIME_SYSTEM":"UTC","PERIOD":"91.338","REF_FRAME":"TEME","SEMIMAJOR_AXIS":"6718.336","COUNTRY_CODE":"US","MEAN_MOTION":"15.76558825","ECCENTRICITY":"0.00097770","OBJECT_TYPE":"PAYLOAD","ARG_OF_PERICENTER":"251.6748","NORAD_CAT_ID":"50181","EPOCH":"2022-01-06T22:23:14.025408","BSTAR":"0.00366590000000","RA_OF_ASC_NODE":"269.5206","RCS_SIZE":"LARGE","REV_AT_EPOCH":"637","OBJECT_ID":"2021-125AB","DECAY_DATE":null,"INCLINATION":"53.2194","MEAN_ELEMENT_THEORY":"SGP4","EPHEMERIS_TYPE":"0","ELEMENT_SET_NO":"999","SITE":"AFWTR","CENTER_NAME":"EARTH","OBJECT_NAME":"STARLINK-3285","PERIAPSIS":"333.633","MEAN_ANOMALY":"108.3210","MEAN_MOTION_DOT":"0.00642879","GP_ID":"193355706","MEAN_MOTION_DDOT":"0.0000000000000","APOAPSIS":"346.770","FILE":"3265870","TLE_LINE1":"1 50181U 21125AB  22006.93280122  .00642879  00000-0  36659-2 0  9990","TLE_LINE2":"2 50181  53.2194 269.5206 0009777 251.6748 108.3210 15.76558825  6377","LAUNCH_DATE":"2021-12-18"},{"ECCENTRICITY":"0.00018900","OBJECT_TYPE":"PAYLOAD","SEMIMAJOR_AXIS":"6724.382","REF_FRAME":"TEME","COUNTRY_CODE":"US","MEAN_MOTION":"15.74433054","TIME_SYSTEM":"UTC","PERIOD":"91.461","CLASSIFICATION_TYPE":"U","REV_AT_EPOCH":"639","RCS_SIZE":"LARGE","EPOCH":"2022-01-06T20:52:20.278560","BSTAR":"-0.00239260000000","RA_OF_ASC_NODE":"269.8362","ARG_OF_PERICENTER":"127.0729","NORAD_CAT_ID":"50182","OBJECT_ID":"2021-125AC","SITE":"AFWTR","CENTER_NAME":"EARTH","ELEMENT_SET_NO":"999","EPHEMERIS_TYPE":"0","INCLINATION":"53.2192","MEAN_ELEMENT_THEORY":"SGP4","DECAY_DATE":null,"MEAN_MOTION_DOT":"-0.00340868","GP_ID":"193356958","PERIAPSIS":"344.976","MEAN_ANOMALY":"233.0464","OBJECT_NAME":"STARLINK-3277","FILE":"3265870","APOAPSIS":"347.518","MEAN_MOTION_DDOT":"0.0000000000000","TLE_LINE2":"2 50182  53.2192 269.8362 0001890 127.0729 233.0464 15.74433054  6398","TLE_LINE1":"1 50182U 21125AC  22006.86967915 -.00340868  00000-0 -23926-2 0  9993","LAUNCH_DATE":"2021-12-18"},{"MEAN_MOTION_DDOT":"0.0000000000000","APOAPSIS":"347.315","FILE":"3265870","OBJECT_NAME":"STARLINK-3281","MEAN_ANOMALY":"239.8419","PERIAPSIS":"345.501","GP_ID":"193356708","MEAN_MOTION_DOT":"-0.00423996","LAUNCH_DATE":"2021-12-18","TLE_LINE1":"1 50183U 21125AD  22006.86988679 -.00423996  00000-0 -30140-2 0  9994","TLE_LINE2":"2 50183  53.2185 269.8383 0001349 120.2735 239.8419 15.74376514  6408","NORAD_CAT_ID":"50183","ARG_OF_PERICENTER":"120.2735","RA_OF_ASC_NODE":"269.8383","BSTAR":"-0.00301400000000","EPOCH":"2022-01-06T20:52:38.218656","RCS_SIZE":"MEDIUM","REV_AT_EPOCH":"640","CLASSIFICATION_TYPE":"U","PERIOD":"91.465","TIME_SYSTEM":"UTC","COUNTRY_CODE":"US","MEAN_MOTION":"15.74376514","REF_FRAME":"TEME","SEMIMAJOR_AXIS":"6724.543","OBJECT_TYPE":"PAYLOAD","ECCENTRICITY":"0.00013490","DECAY_DATE":null,"MEAN_ELEMENT_THEORY":"SGP4","INCLINATION":"53.2185","EPHEMERIS_TYPE":"0","ELEMENT_SET_NO":"999","SITE":"AFWTR","CENTER_NAME":"EARTH","OBJECT_ID":"2021-125AD"},{"MEAN_MOTION_DDOT":"0.0000000000000","FILE":"3265870","APOAPSIS":"347.162","OBJECT_NAME":"STARLINK-3279","PERIAPSIS":"345.686","MEAN_ANOMALY":"251.1822","GP_ID":"193355957","MEAN_MOTION_DOT":"-0.00396154","LAUNCH_DATE":"2021-12-18","TLE_LINE1":"1 50185U 21125AF  22006.87021389 -.00396154  00000-0 -28075-2 0  9992","TLE_LINE2":"2 50185  53.2197 269.8414 0001097 108.9317 251.1822 15.74370827  6368","NORAD_CAT_ID":"50185","ARG_OF_PERICENTER":"108.9317","BSTAR":"-0.00280750000000","RA_OF_ASC_NODE":"269.8414","EPOCH":"2022-01-06T20:53:06.480096","RCS_SIZE":"LARGE","REV_AT_EPOCH":"636","CLASSIFICATION_TYPE":"U","PERIOD":"91.465","TIME_SYSTEM":"UTC","MEAN_MOTION":"15.74370827","COUNTRY_CODE":"US","REF_FRAME":"TEME","SEMIMAJOR_AXIS":"6724.559","OBJECT_TYPE":"PAYLOAD","ECCENTRICITY":"0.00010970","DECAY_DATE":null,"MEAN_ELEMENT_THEORY":"SGP4","INCLINATION":"53.2197","EPHEMERIS_TYPE":"0","CENTER_NAME":"EARTH","SITE":"AFWTR","ELEMENT_SET_NO":"999","OBJECT_ID":"2021-125AF"},{"CLASSIFICATION_TYPE":"U","TIME_SYSTEM":"UTC","PERIOD":"91.240","REF_FRAME":"TEME","SEMIMAJOR_AXIS":"6713.507","COUNTRY_CODE":"US","MEAN_MOTION":"15.78260034","ECCENTRICITY":"0.00159720","OBJECT_TYPE":"PAYLOAD","ARG_OF_PERICENTER":"282.7535","NORAD_CAT_ID":"50186","EPOCH":"2022-01-06T22:21:07.784640","RA_OF_ASC_NODE":"269.5111","BSTAR":"0.00601680000000","RCS_SIZE":"LARGE","REV_AT_EPOCH":"636","OBJECT_ID":"2021-125AG","DECAY_DATE":null,"INCLINATION":"53.2195","MEAN_ELEMENT_THEORY":"SGP4","EPHEMERIS_TYPE":"0","ELEMENT_SET_NO":"999","SITE":"AFWTR","CENTER_NAME":"EARTH","OBJECT_NAME":"STARLINK-3274","MEAN_ANOMALY":"77.1702","PERIAPSIS":"324.650","MEAN_MOTION_DOT":"0.01192177","GP_ID":"193356207","MEAN_MOTION_DDOT":"0.0000000000000","APOAPSIS":"346.095","FILE":"3265870","TLE_LINE1":"1 50186U 21125AG  22006.93134010  .01192177  00000-0  60168-2 0  9993","TLE_LINE2":"2 50186  53.2195 269.5111 0015972 282.7535  77.1702 15.78260034  6363","LAUNCH_DATE":"2021-12-18"}];
